STARLINK-1279           
1 45360U 20019A   22085.83129070  .00000165  00000+0  29999-4 0  9990
2 45360  53.0543 138.3504 0001465  66.0332 294.0810 15.06398983112516
STARLINK-1301           
1 45361U 20019B   22085.88567260  .00000258  00000+0  36239-4 0  9991
2 45361  53.0544 148.1064 0001451  65.4048 294.7092 15.06389307112395
STARLINK-1306           
1 45362U 20019C   22085.73270249  .00000933  00000+0  81507-4 0  9992
2 45362  53.0543 168.7915 0001497  61.6369 298.4771 15.06394945112087
STARLINK-1313           
1 45364U 20019E   22085.56222021  .00000803  00000+0  72815-4 0  9998
2 45364  53.0536 139.5638 0001556  62.3591 297.7556 15.06403819112477
STARLINK-1317           
1 45365U 20019F   22085.85695770  .00000759  00000+0  71220-4 0  9995
2 45365  52.9987 148.2508 0001554  64.6803 295.4346 15.05587479112340
STARLINK-1262           
1 45366U 20019G   22085.58525581  .00000239  00000+0  34975-4 0  9997
2 45366  53.0542 169.4458 0001433  63.5368 296.5768 15.06396574112074
STARLINK-1273           
1 45367U 20019H   22085.54104154 -.00001147  00000+0 -58174-4 0  9991
2 45367  53.0531 169.6606 0001411  68.3842 291.7297 15.06386819112060
STARLINK-1276           
1 45368U 20019J   22085.57788453 -.00000743  00000+0 -31017-4 0  9993
2 45368  53.0528 169.4768 0001359  84.5414 275.5729 15.06395024112079
STARLINK-1277           
1 45369U 20019K   22085.57693992 -.00002582  00000+0 -15456-3 0  9998
2 45369  53.0517 169.4964 0001414  66.1849 293.9288 15.06393746112079
STARLINK-1281           
1 45370U 20019L   22085.63316975  .00001112  00000+0  93516-4 0  9990
2 45370  53.0555 169.2441 0001604  70.1118 290.0043 15.06401833112081
STARLINK-1287           
1 45371U 20019M   22085.72901087 -.00001340  00000+0 -71089-4 0  9991
2 45371  53.0544 168.8085 0001487  73.0906 287.0246 15.06392518112096
STARLINK-1288           
1 45372U 20019N   22085.61106538  .00000295  00000+0  38680-4 0  9994
2 45372  53.0556 169.3521 0001554  59.7071 300.4071 15.06392704112071
STARLINK-1295           
1 45373U 20019P   22085.65897595 -.00000849  00000+0 -38095-4 0  9996
2 45373  53.0531 169.1198 0001320  73.3764 286.7369 15.06397779112089
STARLINK-1300           
1 45374U 20019Q   22085.72163586  .00001218  00000+0  10068-3 0  9999
2 45374  53.0543 168.8416 0001330  86.8724 273.2417 15.06397901112091
STARLINK-1302           
1 45375U 20019R   22085.67004052  .00000703  00000+0  66081-4 0  9991
2 45375  53.0522 169.0798 0001310  71.1904 288.9227 15.06395528112084
STARLINK-1304           
1 45376U 20019S   22085.75481457  .00000532  00000+0  54607-4 0  9990
2 45376  53.0549 168.7046 0001367  75.6429 284.4712 15.06399669112090
STARLINK-1305           
1 45377U 20019T   22085.71424645  .00000643  00000+0  62057-4 0  9994
2 45377  53.0540 168.8681 0001310  63.9221 296.1903 15.06416656112094
STARLINK-1310           
1 45378U 20019U   22085.57051652 -.00001207  00000+0 -62159-4 0  9995
2 45378  53.0522 169.5277 0001547  81.1612 278.9552 15.06395562112070
STARLINK-1319           
1 45379U 20019V   22085.50784794  .00000763  00000+0  70109-4 0  9997
2 45379  53.0538 169.7993 0001316  63.5810 296.5314 15.06404858112063
STARLINK-1207           
1 45380U 20019W   22085.63870526  .00001051  00000+0  89468-4 0  9991
2 45380  53.0521 149.2061 0001627  56.9465 303.1680 15.06404126112354
STARLINK-1258           
1 45381U 20019X   22085.64977697 -.00000161  00000+0  80599-5 0  9999
2 45381  53.0555 149.1561 0001280  75.0962 285.0169 15.06389097112354
STARLINK-1264           
1 45382U 20019Y   22085.89303470  .00000052  00000+0  22408-4 0  9991
2 45382  53.0546 148.0877 0001349  72.5157 287.5980 15.06396642112214
STARLINK-1266           
1 45383U 20019Z   22085.57605411 -.00002139  00000+0 -12477-3 0  9991
2 45383  53.0551 149.4957 0001344  66.6396 293.4734 15.06385578112342
STARLINK-1267           
1 45384U 20019AA  22085.89671999  .00001617  00000+0  12738-3 0  9999
2 45384  53.0544 148.0585 0001438  67.0642 293.0498 15.06403854112396
STARLINK-1272           
1 45386U 20019AC  22085.56867834 -.00002439  00000+0 -14497-3 0  9999
2 45386  53.0537 149.5389 0001441  73.0206 287.0940 15.06388335112341
STARLINK-1274           
1 45387U 20019AD  22085.85618073  .00000062  00000+0  23040-4 0  9994
2 45387  53.0537 148.2382 0001520  69.2329 290.8823 15.06394759112385
STARLINK-1280           
1 45388U 20019AE  22085.49311676 -.00000350  00000+0 -46157-5 0  9991
2 45388  53.0542 169.8634 0001398  70.1290 289.9849 15.06395810112041
STARLINK-1283           
1 45389U 20019AF  22085.87091758  .00000081  00000+0  24320-4 0  9996
2 45389  53.0548 148.1706 0001741  57.2779 302.8378 15.06398087112397
STARLINK-1284           
1 45390U 20019AG  22085.57974040 -.00001655  00000+0 -92235-4 0  9999
2 45390  53.0527 149.4858 0001756  52.6448 307.4700 15.06394253112342
STARLINK-1289           
1 45391U 20019AH  22085.85986327 -.00001305  00000+0 -68737-4 0  9994
2 45391  53.0543 148.2272 0001290  83.7933 276.3203 15.06397909112113
STARLINK-1290           
1 45392U 20019AJ  22085.62788467  .00013441  00000+0  82022-3 0  9999
2 45392  52.9933 142.3000 0001441  91.6408 268.4747 15.10614754112134
STARLINK-1291           
1 45393U 20019AK  22085.55761349  .00000615  00000+0  60156-4 0  9996
2 45393  53.0538 149.5788 0001245  72.6496 287.4629 15.06396597112102
STARLINK-1292           
1 45394U 20019AL  22085.65346729 -.00001902  00000+0 -10882-3 0  9991
2 45394  53.0544 149.1544 0001423  71.9034 288.2110 15.06391937112099
STARLINK-1297           
1 45395U 20019AM  22085.88198709  .00000081  00000+0  24319-4 0  9996
2 45395  53.0545 148.1342 0001465  68.4976 291.6169 15.06392978111578
STARLINK-1303           
1 45396U 20019AN  22085.53181220 -.00000309  00000+0 -18857-5 0  9995
2 45396  53.0537 149.6894 0001302  76.1633 283.9500 15.06397025112059
STARLINK-1307           
1 45397U 20019AP  22085.87460615  .00000874  00000+0  77538-4 0  9996
2 45397  53.0528 148.1485 0001348  87.3946 272.7197 15.06398493112217
STARLINK-1312           
1 45398U 20019AQ  22085.86723153  .00000010  00000+0  19536-4 0  9991
2 45398  53.0535 148.1776 0001410  72.7091 287.4052 15.06397226112146
STARLINK-1255           
1 45399U 20019AR  22085.84235817 -.00000112  00000+0  11376-4 0  9993
2 45399  53.0537 138.2926 0001688  50.7348 309.3790 15.06392391112336
STARLINK-1213           
1 45400U 20019AS  22085.85709785  .00002546  00000+0  18974-3 0  9999
2 45400  53.0517 138.2405 0001608  55.3501 304.7639 15.06406141112265
STARLINK-1256           
1 45401U 20019AT  22085.85341443 -.00000075  00000+0  13836-4 0  9992
2 45401  53.0541 138.2537 0001536  58.9420 301.1720 15.06393095112331
STARLINK-1257           
1 45402U 20019AU  22085.84972041  .00000071  00000+0  23691-4 0  9991
2 45402  53.0546 138.2637 0001388  72.4702 287.6438 15.06402535112342
STARLINK-1259           
1 45403U 20019AV  22085.53273815 -.00000266  00000+0  10697-5 0  9991
2 45403  53.0546 139.7024 0001624  62.8597 297.2558 15.06392266112289
STARLINK-1260           
1 45404U 20019AW  22085.87553147  .00001838  00000+0  14230-3 0  9998
2 45404  53.0560 138.1426 0001678  58.0798 302.0354 15.06386336112240
STARLINK-1263           
1 45405U 20019AX  22085.66174789 -.00002303  00000+0 -13576-3 0  9999
2 45405  53.0522 139.1047 0001646  58.8332 301.2818 15.06390014112217
STARLINK-1265           
1 45406U 20019AY  22085.86815898  .00001404  00000+0  11314-3 0  9992
2 45406  53.0537 138.1730 0001705  46.8450 313.2681 15.06395051112246
STARLINK-1275           
1 45407U 20019AZ  22085.88195150  .00000930  00000+0  81328-4 0  9993
2 45407  53.0547 138.1222 0001451  71.0745 289.0401 15.06404907112240
STARLINK-1278           
1 45408U 20019BA  22085.49679375  .00000887  00000+0  78443-4 0  9992
2 45408  53.0528 169.8421 0001683  56.0250 304.0898 15.06398359111771
STARLINK-1282           
1 45409U 20019BB  22085.62489584 -.00002105  00000+0 -12247-3 0  9995
2 45409  53.0527 139.2684 0001391  66.0485 294.0649 15.06387972112211
STARLINK-1285           
1 45410U 20019BC  22085.82887196  .00015350  00000+0  97572-4 0  9999
2 45410  53.0481   9.9035 0002075  84.8814 275.2442 15.76736085114022
STARLINK-1293           
1 45411U 20019BD  22085.63962835  .00000276  00000+0  37439-4 0  9990
2 45411  53.0533 139.1993 0001614  75.8378 284.2791 15.06399343112236
STARLINK-1296           
1 45412U 20019BE  22085.87184149 -.00000375  00000+0 -63042-5 0  9993
2 45412  53.0528 138.1747 0001548  60.1322 299.9821 15.06396530112242
STARLINK-1298           
1 45413U 20019BF  22085.83498959 -.00001659  00000+0 -92530-4 0  9996
2 45413  53.0532 138.3316 0001317  66.4776 293.6351 15.06395636112333
STARLINK-1309           
1 45414U 20019BG  22085.55484872 -.00000334  00000+0 -34947-5 0  9993
2 45414  53.0532 139.5859 0001447  84.9325 275.1829 15.06401414112188
STARLINK-1316           
1 45415U 20019BH  22085.84602907  .00001916  00000+0  14748-3 0  9997
2 45415  53.0547 138.2780 0001281  77.6849 282.4283 15.06402794112266
STARLINK-1318           
1 45416U 20019BJ  22085.87921941 -.00001015  00000+0 -49276-4 0  9990
2 45416  53.0541 138.1507 0001319  76.0586 284.0550 15.06391679112253
STARLINK-1286           
1 45417U 20019BK  22085.75112205  .00004343  00000+0  31018-3 0  9992
2 45417  53.0515 168.7162 0001278  81.0343 279.0790 15.06410285112088
STARLINK-1299           
1 45418U 20019BL  22085.67810691  .00010387  00000+0  77576-3 0  9992
2 45418  52.9990 190.1501 0000561  68.5659 291.5388 15.03334706111489
STARLINK-1308           
1 45419U 20019BM  22085.48204935  .00000370  00000+0  43771-4 0  9992
2 45419  53.0556 169.9222 0001464  65.0206 295.0935 15.06396504111795
ONEWEB-0066             
1 45424U 20020A   22085.73766618  .00000612  00000+0  16902-2 0  9992
2 45424  87.8890 327.9582 0002346  82.2590 277.8804 13.11416382100386
